[{"OBJECT_NAME":"HULIANWANG DIGUI-113","OBJECT_ID":"2025-285J","EPOCH":"2026-03-26T11:41:21.382656","MEAN_MOTION":13.29332484,"ECCENTRICITY":4.28e-5,"INCLINATION":50.0085,"RA_OF_ASC_NODE":82.2759,"ARG_OF_PERICENTER":1.8987,"MEAN_ANOMALY":358.1886,"EPHEMERIS_TYPE":0,"CLASSIFICATION_TYPE":"U","NORAD_CAT_ID":66923,"ELEMENT_SET_NO":999,"REV_AT_EPOCH":1506,"BSTAR":9.0697e-5,"MEAN_MOTION_DOT":-8.2e-7,"MEAN_MOTION_DDOT":0},{"OBJECT_NAME":"HULIANWANG DIGUI-114","OBJECT_ID":"2025-287A","EPOCH":"2026-03-26T11:48:49.224960","MEAN_MOTION":13.24417398,"ECCENTRICITY":0.0001871,"INCLINATION":86.4932,"RA_OF_ASC_NODE":310.3345,"ARG_OF_PERICENTER":75.1559,"MEAN_ANOMALY":284.9782,"EPHEMERIS_TYPE":0,"CLASSIFICATION_TYPE":"U","NORAD_CAT_ID":66953,"ELEMENT_SET_NO":999,"REV_AT_EPOCH":1439,"BSTAR":0.00012803,"MEAN_MOTION_DOT":7.0e-7,"MEAN_MOTION_DDOT":0},{"OBJECT_NAME":"HULIANWANG DIGUI-115","OBJECT_ID":"2025-287B","EPOCH":"2026-03-26T13:26:42.131040","MEAN_MOTION":13.24417587,"ECCENTRICITY":0.0001899,"INCLINATION":86.4947,"RA_OF_ASC_NODE":310.3239,"ARG_OF_PERICENTER":72.8227,"MEAN_ANOMALY":287.3115,"EPHEMERIS_TYPE":0,"CLASSIFICATION_TYPE":"U","NORAD_CAT_ID":66954,"ELEMENT_SET_NO":999,"REV_AT_EPOCH":1440,"BSTAR":0.00011498,"MEAN_MOTION_DOT":6.4e-7,"MEAN_MOTION_DDOT":0},{"OBJECT_NAME":"HULIANWANG DIGUI-116","OBJECT_ID":"2025-287C","EPOCH":"2026-03-26T13:15:49.843872","MEAN_MOTION":13.2441774,"ECCENTRICITY":0.0001897,"INCLINATION":86.4887,"RA_OF_ASC_NODE":310.2507,"ARG_OF_PERICENTER":72.6736,"MEAN_ANOMALY":287.4606,"EPHEMERIS_TYPE":0,"CLASSIFICATION_TYPE":"U","NORAD_CAT_ID":66955,"ELEMENT_SET_NO":999,"REV_AT_EPOCH":1440,"BSTAR":9.4734e-5,"MEAN_MOTION_DOT":5.5e-7,"MEAN_MOTION_DDOT":0},{"OBJECT_NAME":"HULIANWANG DIGUI-117","OBJECT_ID":"2025-287D","EPOCH":"2026-03-26T13:05:03.200352","MEAN_MOTION":13.24415902,"ECCENTRICITY":4.23e-5,"INCLINATION":86.4948,"RA_OF_ASC_NODE":310.3173,"ARG_OF_PERICENTER":137.9365,"MEAN_ANOMALY":222.1802,"EPHEMERIS_TYPE":0,"CLASSIFICATION_TYPE":"U","NORAD_CAT_ID":66956,"ELEMENT_SET_NO":999,"REV_AT_EPOCH":1440,"BSTAR":7.6811e-5,"MEAN_MOTION_DOT":4.8e-7,"MEAN_MOTION_DDOT":0},{"OBJECT_NAME":"HULIANWANG DIGUI-118","OBJECT_ID":"2025-287E","EPOCH":"2026-03-26T12:54:07.210944","MEAN_MOTION":13.24417238,"ECCENTRICITY":0.0001883,"INCLINATION":86.4924,"RA_OF_ASC_NODE":310.2863,"ARG_OF_PERICENTER":73.1645,"MEAN_ANOMALY":286.9695,"EPHEMERIS_TYPE":0,"CLASSIFICATION_TYPE":"U","NORAD_CAT_ID":66957,"ELEMENT_SET_NO":999,"REV_AT_EPOCH":1440,"BSTAR":6.7256e-5,"MEAN_MOTION_DOT":4.4e-7,"MEAN_MOTION_DDOT":0},{"OBJECT_NAME":"HULIANWANG DIGUI-119","OBJECT_ID":"2025-295A","EPOCH":"2026-03-26T11:01:12.122112","MEAN_MOTION":13.29322467,"ECCENTRICITY":5.8e-6,"INCLINATION":50.0048,"RA_OF_ASC_NODE":322.4948,"ARG_OF_PERICENTER":118.9655,"MEAN_ANOMALY":241.1223,"EPHEMERIS_TYPE":0,"CLASSIFICATION_TYPE":"U","NORAD_CAT_ID":67059,"ELEMENT_SET_NO":999,"REV_AT_EPOCH":1449,"BSTAR":6.8798e-5,"MEAN_MOTION_DOT":-9.2e-7,"MEAN_MOTION_DDOT":0},{"OBJECT_NAME":"HULIANWANG DIGUI-120","OBJECT_ID":"2025-295B","EPOCH":"2026-03-26T10:37:08.474880","MEAN_MOTION":13.29322557,"ECCENTRICITY":2.3e-6,"INCLINATION":50.0054,"RA_OF_ASC_NODE":322.4129,"ARG_OF_PERICENTER":169.9679,"MEAN_ANOMALY":190.1194,"EPHEMERIS_TYPE":0,"CLASSIFICATION_TYPE":"U","NORAD_CAT_ID":67060,"ELEMENT_SET_NO":999,"REV_AT_EPOCH":1449,"BSTAR":0.00012197,"MEAN_MOTION_DOT":-6.7e-7,"MEAN_MOTION_DDOT":0},{"OBJECT_NAME":"HULIANWANG DIGUI-121","OBJECT_ID":"2025-295C","EPOCH":"2026-03-26T10:49:10.549920","MEAN_MOTION":13.29322401,"ECCENTRICITY":3.7e-6,"INCLINATION":50.0015,"RA_OF_ASC_NODE":322.4151,"ARG_OF_PERICENTER":122.2255,"MEAN_ANOMALY":237.8621,"EPHEMERIS_TYPE":0,"CLASSIFICATION_TYPE":"U","NORAD_CAT_ID":67061,"ELEMENT_SET_NO":999,"REV_AT_EPOCH":1449,"BSTAR":0.00010666,"MEAN_MOTION_DOT":-7.5e-7,"MEAN_MOTION_DDOT":0},{"OBJECT_NAME":"HULIANWANG DIGUI-122","OBJECT_ID":"2025-295D","EPOCH":"2026-03-26T12:13:22.988640","MEAN_MOTION":13.2932388,"ECCENTRICITY":4.3e-6,"INCLINATION":50.0048,"RA_OF_ASC_NODE":322.0946,"ARG_OF_PERICENTER":118.1677,"MEAN_ANOMALY":241.9199,"EPHEMERIS_TYPE":0,"CLASSIFICATION_TYPE":"U","NORAD_CAT_ID":67062,"ELEMENT_SET_NO":999,"REV_AT_EPOCH":1450,"BSTAR":4.3565e-5,"MEAN_MOTION_DOT":-1.04e-6,"MEAN_MOTION_DDOT":0},{"OBJECT_NAME":"HULIANWANG DIGUI-123","OBJECT_ID":"2025-295E","EPOCH":"2026-03-26T12:01:21.263520","MEAN_MOTION":13.29323335,"ECCENTRICITY":5.2e-6,"INCLINATION":50.0048,"RA_OF_ASC_NODE":322.0544,"ARG_OF_PERICENTER":114.2917,"MEAN_ANOMALY":245.7961,"EPHEMERIS_TYPE":0,"CLASSIFICATION_TYPE":"U","NORAD_CAT_ID":67063,"ELEMENT_SET_NO":999,"REV_AT_EPOCH":1450,"BSTAR":0.00011661,"MEAN_MOTION_DOT":-7.0e-7,"MEAN_MOTION_DDOT":0},{"OBJECT_NAME":"HULIANWANG DIGUI-124","OBJECT_ID":"2025-295F","EPOCH":"2026-03-26T11:49:19.128000","MEAN_MOTION":13.29320887,"ECCENTRICITY":2.0e-6,"INCLINATION":50.0009,"RA_OF_ASC_NODE":321.9657,"ARG_OF_PERICENTER":116.66,"MEAN_ANOMALY":243.4274,"EPHEMERIS_TYPE":0,"CLASSIFICATION_TYPE":"U","NORAD_CAT_ID":67064,"ELEMENT_SET_NO":999,"REV_AT_EPOCH":1450,"BSTAR":0.00015886,"MEAN_MOTION_DOT":-5.0e-7,"MEAN_MOTION_DDOT":0},{"OBJECT_NAME":"HULIANWANG DIGUI-125","OBJECT_ID":"2025-295G","EPOCH":"2026-03-26T11:37:16.774752","MEAN_MOTION":13.29321467,"ECCENTRICITY":6.5e-6,"INCLINATION":49.9999,"RA_OF_ASC_NODE":321.9129,"ARG_OF_PERICENTER":101.8801,"MEAN_ANOMALY":258.2078,"EPHEMERIS_TYPE":0,"CLASSIFICATION_TYPE":"U","NORAD_CAT_ID":67065,"ELEMENT_SET_NO":999,"REV_AT_EPOCH":1450,"BSTAR":0.00014866,"MEAN_MOTION_DOT":-5.5e-7,"MEAN_MOTION_DDOT":0},{"OBJECT_NAME":"HULIANWANG DIGUI-126","OBJECT_ID":"2025-295H","EPOCH":"2026-03-26T11:25:15.150720","MEAN_MOTION":13.29322611,"ECCENTRICITY":1.0e-5,"INCLINATION":50.0004,"RA_OF_ASC_NODE":321.8705,"ARG_OF_PERICENTER":158.2273,"MEAN_ANOMALY":201.8603,"EPHEMERIS_TYPE":0,"CLASSIFICATION_TYPE":"U","NORAD_CAT_ID":67066,"ELEMENT_SET_NO":999,"REV_AT_EPOCH":1450,"BSTAR":0.00014478,"MEAN_MOTION_DOT":-5.7e-7,"MEAN_MOTION_DDOT":0},{"OBJECT_NAME":"HULIANWANG DIGUI-127","OBJECT_ID":"2025-295J","EPOCH":"2026-03-26T11:13:13.830816","MEAN_MOTION":13.29322774,"ECCENTRICITY":5.6e-6,"INCLINATION":50.0022,"RA_OF_ASC_NODE":321.8468,"ARG_OF_PERICENTER":126.374,"MEAN_ANOMALY":233.7137,"EPHEMERIS_TYPE":0,"CLASSIFICATION_TYPE":"U","NORAD_CAT_ID":67067,"ELEMENT_SET_NO":999,"REV_AT_EPOCH":1450,"BSTAR":0.0001358,"MEAN_MOTION_DOT":-6.1e-7,"MEAN_MOTION_DDOT":0},{"OBJECT_NAME":"HULIANWANG DIGUI-128","OBJECT_ID":"2025-311A","EPOCH":"2026-03-26T08:08:18.133728","MEAN_MOTION":13.29332008,"ECCENTRICITY":2.66e-5,"INCLINATION":50.0093,"RA_OF_ASC_NODE":52.6569,"ARG_OF_PERICENTER":35.9312,"MEAN_ANOMALY":324.1578,"EPHEMERIS_TYPE":0,"CLASSIFICATION_TYPE":"U","NORAD_CAT_ID":67236,"ELEMENT_SET_NO":999,"REV_AT_EPOCH":1232,"BSTAR":9.2834e-5,"MEAN_MOTION_DOT":-8.1e-7,"MEAN_MOTION_DDOT":0}]
