HULIANWANG DIGUI-113    
1 66923U 25285J   26085.48705304 -.00000082  00000+0  90697-4 0  9995
2 66923  50.0085  82.2759 0000428   1.8987 358.1886 13.29332484 15066
HULIANWANG DIGUI-114    
1 66953U 25287A   26085.49223640  .00000070  00000+0  12803-3 0  9997
2 66953  86.4932 310.3345 0001871  75.1559 284.9782 13.24417398 14390
HULIANWANG DIGUI-115    
1 66954U 25287B   26085.56020985  .00000064  00000+0  11498-3 0  9995
2 66954  86.4947 310.3239 0001899  72.8227 287.3115 13.24417587 14404
HULIANWANG DIGUI-116    
1 66955U 25287C   26085.55266023  .00000055  00000+0  94734-4 0  9995
2 66955  86.4887 310.2507 0001897  72.6736 287.4606 13.24417740 14403
HULIANWANG DIGUI-117    
1 66956U 25287D   26085.54517593  .00000048  00000+0  76811-4 0  9994
2 66956  86.4948 310.3173 0000423 137.9365 222.1802 13.24415902 14401
HULIANWANG DIGUI-118    
1 66957U 25287E   26085.53758346  .00000044  00000+0  67256-4 0  9996
2 66957  86.4924 310.2863 0001883  73.1645 286.9695 13.24417238 14406
HULIANWANG DIGUI-119    
1 67059U 25295A   26085.45916808 -.00000092  00000+0  68798-4 0  9995
2 67059  50.0048 322.4948 0000058 118.9655 241.1223 13.29322467 14498
HULIANWANG DIGUI-120    
1 67060U 25295B   26085.44245920 -.00000067  00000+0  12197-3 0  9999
2 67060  50.0054 322.4129 0000023 169.9679 190.1194 13.29322557 14492
HULIANWANG DIGUI-121    
1 67061U 25295C   26085.45081655 -.00000075  00000+0  10666-3 0  9992
2 67061  50.0015 322.4151 0000037 122.2255 237.8621 13.29322401 14494
HULIANWANG DIGUI-122    
1 67062U 25295D   26085.50929385 -.00000104  00000+0  43565-4 0  9998
2 67062  50.0048 322.0946 0000043 118.1677 241.9199 13.29323880 14508
HULIANWANG DIGUI-123    
1 67063U 25295E   26085.50094055 -.00000070  00000+0  11661-3 0  9999
2 67063  50.0048 322.0544 0000052 114.2917 245.7961 13.29323335 14501
HULIANWANG DIGUI-124    
1 67064U 25295F   26085.49258250 -.00000050  00000+0  15886-3 0  9998
2 67064  50.0009 321.9657 0000020 116.6600 243.4274 13.29320887 14503
HULIANWANG DIGUI-125    
1 67065U 25295G   26085.48422193 -.00000055  00000+0  14866-3 0  9999
2 67065  49.9999 321.9129 0000065 101.8801 258.2078 13.29321467 14502
HULIANWANG DIGUI-126    
1 67066U 25295H   26085.47586980 -.00000057  00000+0  14478-3 0  9995
2 67066  50.0004 321.8705 0000100 158.2273 201.8603 13.29322611 14501
HULIANWANG DIGUI-127    
1 67067U 25295J   26085.46752119 -.00000061  00000+0  13580-3 0  9992
2 67067  50.0022 321.8468 0000056 126.3740 233.7137 13.29322774 14509
HULIANWANG DIGUI-128    
1 67236U 25311A   26085.33909877 -.00000081  00000+0  92834-4 0  9992
2 67236  50.0093  52.6569 0000266  35.9312 324.1578 13.29332008 12322
